{
 "type": "FeatureCollection",
 "name": "Волжский Горизонт — маршрут Самара — Уфа — Самара",
 "features": [
  {
   "type": "Feature",
   "properties": {
    "тип": "маршрут",
    "дней": 15,
    "км": 2606,
    "мост_мин": 13.3
   },
   "geometry": {
    "type": "LineString",
    "coordinates": [
     [
      50.0834,
      53.1868
     ],
     [
      50.052,
      53.19013
     ],
     [
      50.06309,
      53.20998
     ],
     [
      50.08911,
      53.22224
     ],
     [
      50.14136,
      53.23517
     ],
     [
      50.15684,
      53.24392
     ],
     [
      50.1687,
      53.25695
     ],
     [
      50.17529,
      53.27321
     ],
     [
      50.17568,
      53.29133
     ],
     [
      50.17236,
      53.30036
     ],
     [
      50.16123,
      53.31379
     ],
     [
      50.15649,
      53.32165
     ],
     [
      50.15381,
      53.33254
     ],
     [
      50.1542,
      53.3548
     ],
     [
      50.15273,
      53.36584
     ],
     [
      50.14912,
      53.37397
     ],
     [
      50.13174,
      53.39709
     ],
     [
      50.10898,
      53.41938
     ],
     [
      50.09561,
      53.4433
     ],
     [
      50.08789,
      53.45397
     ],
     [
      50.07627,
      53.46271
     ],
     [
      50.0624,
      53.46796
     ],
     [
      50.04688,
      53.47126
     ],
     [
      50.01636,
      53.4737
     ],
     [
      49.98828,
      53.47065
     ],
     [
      49.90479,
      53.45673
     ],
     [
      49.83096,
      53.45983
     ],
     [
      49.77686,
      53.46027
     ],
     [
      49.53101,
      53.47114
     ],
     [
      49.405,
      53.49
     ],
     [
      49.53101,
      53.47114
     ],
     [
      49.26196,
      53.46296
     ],
     [
      49.1583,
      53.47248
     ],
     [
      49.09629,
      53.484
     ],
     [
      49.06934,
      53.49377
     ],
     [
      49.0249,
      53.54523
     ],
     [
      48.98525,
      53.60798
     ],
     [
      48.98506,
      53.67116
     ],
     [
      48.99512,
      53.75978
     ],
     [
      48.99536,
      53.81911
     ],
     [
      48.98901,
      53.85768
     ],
     [
      48.95752,
      53.89992
     ],
     [
      48.91367,
      53.94299
     ],
     [
      48.85264,
      53.99807
     ],
     [
      48.79834,
      54.03332
     ],
     [
      48.75195,
      54.06013
     ],
     [
      48.69922,
      54.09357
     ],
     [
      48.6543,
      54.11315
     ],
     [
      48.60376,
      54.12995
     ],
     [
      48.49976,
      54.18891
     ],
     [
      48.46094,
      54.21325
     ],
     [
      48.45312,
      54.24416
     ],
     [
      48.44688,
      54.29621
     ],
     [
      48.423,
      54.313
     ],
     [
      48.44688,
      54.29621
     ],
     [
      48.44434,
      54.34455
     ],
     [
      48.45068,
      54.38813
     ],
     [
      48.46826,
      54.44111
     ],
     [
      48.4895,
      54.48244
     ],
     [
      48.52598,
      54.52277
     ],
     [
      48.59316,
      54.54865
     ],
     [
      48.69043,
      54.56415
     ],
     [
      48.75049,
      54.56994
     ],
     [
      48.80957,
      54.59174
     ],
     [
      48.86729,
      54.64838
     ],
     [
      48.87231,
      54.69843
     ],
     [
      48.87378,
      54.7279
     ],
     [
      48.9,
      54.77497
     ],
     [
      48.90112,
      54.80383
     ],
     [
      48.90625,
      54.84089
     ],
     [
      48.9125,
      54.86657
     ],
     [
      48.90811,
      54.90412
     ],
     [
      48.89233,
      54.94062
     ],
     [
      48.89102,
      54.97028
     ],
     [
      48.91113,
      54.99714
     ],
     [
      48.97168,
      55.02485
     ],
     [
      49.05674,
      55.04601
     ],
     [
      49.10034,
      55.0548
     ],
     [
      49.20254,
      55.08466
     ],
     [
      49.29517,
      55.11884
     ],
     [
      49.36035,
      55.15168
     ],
     [
      49.3502,
      55.18659
     ],
     [
      49.32471,
      55.21081
     ],
     [
      49.28247,
      55.2362
     ],
     [
      49.24551,
      55.26435
     ],
     [
      49.12451,
      55.40212
     ],
     [
      49.05898,
      55.48268
     ],
     [
      49.02612,
      55.54072
     ],
     [
      49.00693,
      55.59865
     ],
     [
      49.00366,
      55.62592
     ],
     [
      49.01538,
      55.70661
     ],
     [
      49.00938,
      55.74396
     ],
     [
      49.115,
      55.776
     ],
     [
      49.00938,
      55.74396
     ],
     [
      49.01538,
      55.70661
     ],
     [
      49.00366,
      55.62592
     ],
     [
      49.00693,
      55.59865
     ],
     [
      49.02612,
      55.54072
     ],
     [
      49.05898,
      55.48268
     ],
     [
      49.12451,
      55.40212
     ],
     [
      49.24551,
      55.26435
     ],
     [
      49.28247,
      55.2362
     ],
     [
      49.32471,
      55.21081
     ],
     [
      49.3502,
      55.18659
     ],
     [
      49.36035,
      55.15168
     ],
     [
      49.38232,
      55.17182
     ],
     [
      49.41563,
      55.1966
     ],
     [
      49.53223,
      55.26061
     ],
     [
      49.59873,
      55.28413
     ],
     [
      49.69541,
      55.29445
     ],
     [
      49.77612,
      55.31262
     ],
     [
      49.82217,
      55.33466
     ],
     [
      49.8877,
      55.34736
     ],
     [
      49.96387,
      55.34597
     ],
     [
      50.01904,
      55.35554
     ],
     [
      50.07803,
      55.38112
     ],
     [
      50.13696,
      55.3985
     ],
     [
      50.18091,
      55.40368
     ],
     [
      50.24463,
      55.40583
     ],
     [
      50.31396,
      55.38356
     ],
     [
      50.37002,
      55.37824
     ],
     [
      50.41187,
      55.40119
     ],
     [
      50.47339,
      55.41091
     ],
     [
      50.54736,
      55.4112
     ],
     [
      50.60986,
      55.4051
     ],
     [
      50.65649,
      55.40368
     ],
     [
      50.635,
      55.366
     ],
     [
      50.65649,
      55.40368
     ],
     [
      50.68838,
      55.42011
     ],
     [
      50.71167,
      55.44123
     ],
     [
      50.7522,
      55.46625
     ],
     [
      50.79072,
      55.48652
     ],
     [
      50.82832,
      55.49421
     ],
     [
      50.87354,
      55.49531
     ],
     [
      50.92539,
      55.48366
     ],
     [
      50.98022,
      55.46638
     ],
     [
      51.03296,
      55.46186
     ],
     [
      51.07935,
      55.4676
     ],
     [
      51.10693,
      55.47424
     ],
     [
      51.13452,
      55.48273
     ],
     [
      51.15698,
      55.4923
     ],
     [
      51.17471,
      55.50661
     ],
     [
      51.20664,
      55.51508
     ],
     [
      51.24243,
      55.51411
     ],
     [
      51.26416,
      55.50361
     ],
     [
      51.28379,
      55.48652
     ],
     [
      51.3125,
      55.47724
     ],
     [
      51.36914,
      55.46796
     ],
     [
      51.40674,
      55.46516
     ],
     [
      51.44458,
      55.47053
     ],
     [
      51.47217,
      55.48146
     ],
     [
      51.48584,
      55.49641
     ],
     [
      51.49976,
      55.51411
     ],
     [
      51.50854,
      55.52949
     ],
     [
      51.50596,
      55.55048
     ],
     [
      51.50122,
      55.57058
     ],
     [
      51.51343,
      55.58312
     ],
     [
      51.53955,
      55.59223
     ],
     [
      51.57871,
      55.59943
     ],
     [
      51.62036,
      55.6048
     ],
     [
      51.66284,
      55.60817
     ],
     [
      51.69043,
      55.61682
     ],
     [
      51.69541,
      55.63959
     ],
     [
      51.70947,
      55.66857
     ],
     [
      51.72939,
      55.69099
     ],
     [
      51.75684,
      55.70368
     ],
     [
      51.79072,
      55.70607
     ],
     [
      51.82031,
      55.69746
     ],
     [
      51.85361,
      55.67849
     ],
     [
      51.88062,
      55.67438
     ],
     [
      51.9252,
      55.69355
     ],
     [
      51.99795,
      55.72285
     ],
     [
      52.02319,
      55.72211
     ],
     [
      52.09414,
      55.69489
     ],
     [
      52.12148,
      55.68976
     ],
     [
      52.27656,
      55.69575
     ],
     [
      52.34448,
      55.71418
     ],
     [
      52.375,
      55.71
     ],
     [
      52.34448,
      55.71418
     ],
     [
      52.35176,
      55.72932
     ],
     [
      52.34692,
      55.74763
     ],
     [
      52.31582,
      55.80324
     ],
     [
      52.30898,
      55.82209
     ],
     [
      52.3064,
      55.84199
     ],
     [
      52.31787,
      55.8631
     ],
     [
      52.34512,
      55.87062
     ],
     [
      52.37671,
      55.86982
     ],
     [
      52.46826,
      55.85236
     ],
     [
      52.50293,
      55.85126
     ],
     [
      52.52954,
      55.86281
     ],
     [
      52.60864,
      55.92829
     ],
     [
      52.65781,
      55.9593
     ],
     [
      52.7085,
      55.96516
     ],
     [
      52.76025,
      55.95417
     ],
     [
      52.81348,
      55.93452
     ],
     [
      52.8418,
      55.92988
     ],
     [
      52.9166,
      55.92585
     ],
     [
      52.94033,
      55.91774
     ],
     [
      52.95044,
      55.91254
     ],
     [
      52.99219,
      55.90034
     ],
     [
      53.02197,
      55.88454
     ],
     [
      53.06348,
      55.86982
     ],
     [
      53.09414,
      55.86359
     ],
     [
      53.28574,
      55.852
     ],
     [
      53.49927,
      55.89289
     ],
     [
      53.52578,
      55.90407
     ],
     [
      53.53564,
      55.91076
     ],
     [
      53.5334,
      55.90717
     ],
     [
      53.62939,
      55.90717
     ],
     [
      53.65186,
      55.90295
     ],
     [
      53.69507,
      55.88415
     ],
     [
      53.75938,
      55.86628
     ],
     [
      53.7627,
      55.8694
     ],
     [
      53.76699,
      55.87568
     ],
     [
      53.77285,
      55.88239
     ],
     [
      53.78052,
      55.88674
     ],
     [
      53.80151,
      55.88674
     ],
     [
      53.82422,
      55.88185
     ],
     [
      53.84692,
      55.87946
     ],
     [
      53.86865,
      55.88674
     ],
     [
      53.88232,
      55.8799
     ],
     [
      53.87705,
      55.84589
     ],
     [
      53.90488,
      55.83156
     ],
     [
      53.94053,
      55.82172
     ],
     [
      53.95801,
      55.80104
     ],
     [
      53.96558,
      55.78242
     ],
     [
      53.9833,
      55.78547
     ],
     [
      54.02002,
      55.80475
     ],
     [
      54.03994,
      55.80212
     ],
     [
      54.04756,
      55.79157
     ],
     [
      54.04297,
      55.77741
     ],
     [
      54.02627,
      55.76386
     ],
     [
      54.04922,
      55.75812
     ],
     [
      54.0769,
      55.76564
     ],
     [
      54.10586,
      55.77712
     ],
     [
      54.13271,
      55.78303
     ],
     [
      54.1876,
      55.78254
     ],
     [
      54.21914,
      55.77795
     ],
     [
      54.25332,
      55.76306
     ],
     [
      54.26807,
      55.76086
     ],
     [
      54.28125,
      55.75654
     ],
     [
      54.28701,
      55.74616
     ],
     [
      54.28687,
      55.72614
     ],
     [
      54.28979,
      55.72065
     ],
     [
      54.29746,
      55.71198
     ],
     [
      54.31006,
      55.70983
     ],
     [
      54.32266,
      55.7218
     ],
     [
      54.33799,
      55.73073
     ],
     [
      54.35928,
      55.71911
     ],
     [
      54.37744,
      55.71479
     ],
     [
      54.42734,
      55.73579
     ],
     [
      54.45142,
      55.73652
     ],
     [
      54.46836,
      55.72219
     ],
     [
      54.48086,
      55.70246
     ],
     [
      54.4957,
      55.68605
     ],
     [
      54.51963,
      55.6819
     ],
     [
      54.53135,
      55.68622
     ],
     [
      54.53604,
      55.69172
     ],
     [
      54.54111,
      55.69562
     ],
     [
      54.55396,
      55.69489
     ],
     [
      54.56162,
      55.69128
     ],
     [
      54.57812,
      55.6789
     ],
     [
      54.58862,
      55.67443
     ],
     [
      54.60439,
      55.67394
     ],
     [
      54.61475,
      55.67775
     ],
     [
      54.62402,
      55.67988
     ],
     [
      54.63633,
      55.67443
     ],
     [
      54.64102,
      55.6673
     ],
     [
      54.6459,
      55.64704
     ],
     [
      54.6501,
      55.63972
     ],
     [
      54.66348,
      55.63464
     ],
     [
      54.69238,
      55.63178
     ],
     [
      54.69785,
      55.62292
     ],
     [
      54.69619,
      55.60944
     ],
     [
      54.69141,
      55.60175
     ],
     [
      54.67432,
      55.5885
     ],
     [
      54.66758,
      55.57795
     ],
     [
      54.66787,
      55.56672
     ],
     [
      54.67373,
      55.55676
     ],
     [
      54.68418,
      55.55031
     ],
     [
      54.70078,
      55.54792
     ],
     [
      54.70825,
      55.5528
     ],
     [
      54.7123,
      55.56196
     ],
     [
      54.72607,
      55.58295
     ],
     [
      54.73047,
      55.59133
     ],
     [
      54.7374,
      55.59675
     ],
     [
      54.75317,
      55.5987
     ],
     [
      54.76489,
      55.5965
     ],
     [
      54.77354,
      55.59028
     ],
     [
      54.77871,
      55.58063
     ],
     [
      54.78052,
      55.5683
     ],
     [
      54.78979,
      55.55495
     ],
     [
      54.84922,
      55.50934
     ],
     [
      54.86694,
      55.48854
     ],
     [
      54.862,
      55.483
     ],
     [
      54.86694,
      55.48854
     ],
     [
      54.88428,
      55.47609
     ],
     [
      54.90649,
      55.46999
     ],
     [
      54.93809,
      55.46838
     ],
     [
      54.96377,
      55.47504
     ],
     [
      54.96006,
      55.49067
     ],
     [
      54.93125,
      55.52363
     ],
     [
      54.92988,
      55.57319
     ],
     [
      54.97422,
      55.586
     ],
     [
      55.03125,
      55.58808
     ],
     [
      55.06777,
      55.60554
     ],
     [
      55.05674,
      55.62429
     ],
     [
      55.06812,
      55.6424
     ],
     [
      55.09043,
      55.65148
     ],
     [
      55.1126,
      55.64313
     ],
     [
      55.18457,
      55.58288
     ],
     [
      55.19897,
      55.57722
     ],
     [
      55.20908,
      55.56862
     ],
     [
      55.21313,
      55.54719
     ],
     [
      55.21133,
      55.52834
     ],
     [
      55.20508,
      55.50959
     ],
     [
      55.19326,
      55.49518
     ],
     [
      55.17422,
      55.48945
     ],
     [
      55.16367,
      55.48481
     ],
     [
      55.16064,
      55.47394
     ],
     [
      55.1627,
      55.4613
     ],
     [
      55.16772,
      55.45161
     ],
     [
      55.17822,
      55.44672
     ],
     [
      55.20693,
      55.44934
     ],
     [
      55.21924,
      55.44787
     ],
     [
      55.24316,
      55.4175
     ],
     [
      55.25391,
      55.41223
     ],
     [
      55.26602,
      55.41491
     ],
     [
      55.32168,
      55.4455
     ],
     [
      55.33984,
      55.45153
     ],
     [
      55.42617,
      55.46479
     ],
     [
      55.43359,
      55.47089
     ],
     [
      55.43916,
      55.47773
     ],
     [
      55.44521,
      55.48268
     ],
     [
      55.49473,
      55.48884
     ],
     [
      55.50781,
      55.46022
     ],
     [
      55.49648,
      55.41725
     ],
     [
      55.47256,
      55.38024
     ],
     [
      55.45508,
      55.36408
     ],
     [
      55.43369,
      55.35109
     ],
     [
      55.41055,
      55.34816
     ],
     [
      55.38711,
      55.36225
     ],
     [
      55.375,
      55.36706
     ],
     [
      55.36074,
      55.36306
     ],
     [
      55.34863,
      55.35436
     ],
     [
      55.34277,
      55.34548
     ],
     [
      55.34414,
      55.33625
     ],
     [
      55.34971,
      55.32863
     ],
     [
      55.38496,
      55.30056
     ],
     [
      55.40796,
      55.28762
     ],
     [
      55.43311,
      55.27949
     ],
     [
      55.49414,
      55.27082
     ],
     [
      55.50234,
      55.25891
     ],
     [
      55.48965,
      55.24885
     ],
     [
      55.45889,
      55.24865
     ],
     [
      55.40869,
      55.2569
     ],
     [
      55.38916,
      55.251
     ],
     [
      55.30703,
      55.18989
     ],
     [
      55.29551,
      55.17414
     ],
     [
      55.31372,
      55.17084
     ],
     [
      55.33252,
      55.17011
     ],
     [
      55.3479,
      55.16628
     ],
     [
      55.35645,
      55.15368
     ],
     [
      55.35474,
      55.14758
     ],
     [
      55.34512,
      55.12946
     ],
     [
      55.34277,
      55.12263
     ],
     [
      55.34692,
      55.11579
     ],
     [
      55.3562,
      55.11042
     ],
     [
      55.36646,
      55.10786
     ],
     [
      55.37314,
      55.10895
     ],
     [
      55.39771,
      55.1256
     ],
     [
      55.52773,
      55.17145
     ],
     [
      55.60083,
      55.18037
     ],
     [
      55.66416,
      55.17897
     ],
     [
      55.70889,
      55.16999
     ],
     [
      55.78652,
      55.16603
     ],
     [
      55.80215,
      55.16052
     ],
     [
      55.79072,
      55.14699
     ],
     [
      55.77236,
      55.14643
     ],
     [
      55.75122,
      55.14943
     ],
     [
      55.73252,
      55.14684
     ],
     [
      55.72207,
      55.13605
     ],
     [
      55.71104,
      55.11774
     ],
     [
      55.70225,
      55.09865
     ],
     [
      55.69844,
      55.08539
     ],
     [
      55.70068,
      55.06904
     ],
     [
      55.70957,
      55.06276
     ],
     [
      55.725,
      55.06245
     ],
     [
      55.80869,
      55.07319
     ],
     [
      55.82871,
      55.07111
     ],
     [
      55.85098,
      55.06286
     ],
     [
      55.96133,
      55.00793
     ],
     [
      55.97256,
      54.99287
     ],
     [
      55.96592,
      54.96809
     ],
     [
      55.95044,
      54.9549
     ],
     [
      55.89385,
      54.92585
     ],
     [
      55.87354,
      54.92028
     ],
     [
      55.86338,
      54.91572
     ],
     [
      55.86475,
      54.90588
     ],
     [
      55.8749,
      54.89643
     ],
     [
      55.89087,
      54.89301
     ],
     [
      55.90308,
      54.89692
     ],
     [
      55.92373,
      54.91052
     ],
     [
      55.93857,
      54.91352
     ],
     [
      55.95938,
      54.90974
     ],
     [
      55.98389,
      54.90026
     ],
     [
      56.00723,
      54.88813
     ],
     [
      56.03574,
      54.86818
     ],
     [
      56.04258,
      54.86525
     ],
     [
      56.04443,
      54.85981
     ],
     [
      56.04102,
      54.84455
     ],
     [
      56.0375,
      54.83491
     ],
     [
      56.03247,
      54.82624
     ],
     [
      56.02061,
      54.8111
     ],
     [
      55.98164,
      54.78486
     ],
     [
      55.89502,
      54.75978
     ],
     [
      55.86289,
      54.72853
     ],
     [
      55.88379,
      54.71772
     ],
     [
      55.92832,
      54.71235
     ],
     [
      55.95,
      54.72
     ],
     [
      55.92832,
      54.71235
     ],
     [
      55.88379,
      54.71772
     ],
     [
      55.86289,
      54.72853
     ],
     [
      55.89502,
      54.75978
     ],
     [
      55.98164,
      54.78486
     ],
     [
      56.02061,
      54.8111
     ],
     [
      56.03247,
      54.82624
     ],
     [
      56.0375,
      54.83491
     ],
     [
      56.04102,
      54.84455
     ],
     [
      56.04443,
      54.85981
     ],
     [
      56.04258,
      54.86525
     ],
     [
      56.03574,
      54.86818
     ],
     [
      56.00723,
      54.88813
     ],
     [
      55.98389,
      54.90026
     ],
     [
      55.95938,
      54.90974
     ],
     [
      55.93857,
      54.91352
     ],
     [
      55.92373,
      54.91052
     ],
     [
      55.90308,
      54.89692
     ],
     [
      55.89087,
      54.89301
     ],
     [
      55.8749,
      54.89643
     ],
     [
      55.86475,
      54.90588
     ],
     [
      55.86338,
      54.91572
     ],
     [
      55.87354,
      54.92028
     ],
     [
      55.89385,
      54.92585
     ],
     [
      55.95044,
      54.9549
     ],
     [
      55.96592,
      54.96809
     ],
     [
      55.97256,
      54.99287
     ],
     [
      55.96133,
      55.00793
     ],
     [
      55.85098,
      55.06286
     ],
     [
      55.82871,
      55.07111
     ],
     [
      55.80869,
      55.07319
     ],
     [
      55.725,
      55.06245
     ],
     [
      55.70957,
      55.06276
     ],
     [
      55.70068,
      55.06904
     ],
     [
      55.69844,
      55.08539
     ],
     [
      55.70225,
      55.09865
     ],
     [
      55.71104,
      55.11774
     ],
     [
      55.72207,
      55.13605
     ],
     [
      55.73252,
      55.14684
     ],
     [
      55.75122,
      55.14943
     ],
     [
      55.77236,
      55.14643
     ],
     [
      55.79072,
      55.14699
     ],
     [
      55.80215,
      55.16052
     ],
     [
      55.78652,
      55.16603
     ],
     [
      55.70889,
      55.16999
     ],
     [
      55.66416,
      55.17897
     ],
     [
      55.60083,
      55.18037
     ],
     [
      55.52773,
      55.17145
     ],
     [
      55.39771,
      55.1256
     ],
     [
      55.37314,
      55.10895
     ],
     [
      55.36646,
      55.10786
     ],
     [
      55.3562,
      55.11042
     ],
     [
      55.34692,
      55.11579
     ],
     [
      55.34277,
      55.12263
     ],
     [
      55.34512,
      55.12946
     ],
     [
      55.35474,
      55.14758
     ],
     [
      55.35645,
      55.15368
     ],
     [
      55.3479,
      55.16628
     ],
     [
      55.33252,
      55.17011
     ],
     [
      55.31372,
      55.17084
     ],
     [
      55.29551,
      55.17414
     ],
     [
      55.30703,
      55.18989
     ],
     [
      55.38916,
      55.251
     ],
     [
      55.40869,
      55.2569
     ],
     [
      55.45889,
      55.24865
     ],
     [
      55.48965,
      55.24885
     ],
     [
      55.50234,
      55.25891
     ],
     [
      55.49414,
      55.27082
     ],
     [
      55.43311,
      55.27949
     ],
     [
      55.40796,
      55.28762
     ],
     [
      55.38496,
      55.30056
     ],
     [
      55.34971,
      55.32863
     ],
     [
      55.34414,
      55.33625
     ],
     [
      55.34277,
      55.34548
     ],
     [
      55.34863,
      55.35436
     ],
     [
      55.36074,
      55.36306
     ],
     [
      55.375,
      55.36706
     ],
     [
      55.38711,
      55.36225
     ],
     [
      55.41055,
      55.34816
     ],
     [
      55.43369,
      55.35109
     ],
     [
      55.45508,
      55.36408
     ],
     [
      55.47256,
      55.38024
     ],
     [
      55.49648,
      55.41725
     ],
     [
      55.54,
      55.418
     ],
     [
      55.49648,
      55.41725
     ],
     [
      55.50781,
      55.46022
     ],
     [
      55.49473,
      55.48884
     ],
     [
      55.44521,
      55.48268
     ],
     [
      55.43916,
      55.47773
     ],
     [
      55.43359,
      55.47089
     ],
     [
      55.42617,
      55.46479
     ],
     [
      55.33984,
      55.45153
     ],
     [
      55.32168,
      55.4455
     ],
     [
      55.26602,
      55.41491
     ],
     [
      55.25391,
      55.41223
     ],
     [
      55.24316,
      55.4175
     ],
     [
      55.21924,
      55.44787
     ],
     [
      55.20693,
      55.44934
     ],
     [
      55.17822,
      55.44672
     ],
     [
      55.16772,
      55.45161
     ],
     [
      55.1627,
      55.4613
     ],
     [
      55.16064,
      55.47394
     ],
     [
      55.16367,
      55.48481
     ],
     [
      55.17422,
      55.48945
     ],
     [
      55.19326,
      55.49518
     ],
     [
      55.20508,
      55.50959
     ],
     [
      55.21133,
      55.52834
     ],
     [
      55.21313,
      55.54719
     ],
     [
      55.20908,
      55.56862
     ],
     [
      55.19897,
      55.57722
     ],
     [
      55.18457,
      55.58288
     ],
     [
      55.1126,
      55.64313
     ],
     [
      55.09043,
      55.65148
     ],
     [
      55.06812,
      55.6424
     ],
     [
      55.05674,
      55.62429
     ],
     [
      55.06777,
      55.60554
     ],
     [
      55.03125,
      55.58808
     ],
     [
      54.97422,
      55.586
     ],
     [
      54.92988,
      55.57319
     ],
     [
      54.93125,
      55.52363
     ],
     [
      54.96006,
      55.49067
     ],
     [
      54.96377,
      55.47504
     ],
     [
      54.93809,
      55.46838
     ],
     [
      54.90649,
      55.46999
     ],
     [
      54.88428,
      55.47609
     ],
     [
      54.86694,
      55.48854
     ],
     [
      54.84922,
      55.50934
     ],
     [
      54.78979,
      55.55495
     ],
     [
      54.78052,
      55.5683
     ],
     [
      54.77871,
      55.58063
     ],
     [
      54.77354,
      55.59028
     ],
     [
      54.76489,
      55.5965
     ],
     [
      54.75317,
      55.5987
     ],
     [
      54.7374,
      55.59675
     ],
     [
      54.73047,
      55.59133
     ],
     [
      54.72607,
      55.58295
     ],
     [
      54.7123,
      55.56196
     ],
     [
      54.70825,
      55.5528
     ],
     [
      54.70078,
      55.54792
     ],
     [
      54.68418,
      55.55031
     ],
     [
      54.67373,
      55.55676
     ],
     [
      54.66787,
      55.56672
     ],
     [
      54.66758,
      55.57795
     ],
     [
      54.67432,
      55.5885
     ],
     [
      54.69141,
      55.60175
     ],
     [
      54.69619,
      55.60944
     ],
     [
      54.69785,
      55.62292
     ],
     [
      54.69238,
      55.63178
     ],
     [
      54.66348,
      55.63464
     ],
     [
      54.6501,
      55.63972
     ],
     [
      54.6459,
      55.64704
     ],
     [
      54.64102,
      55.6673
     ],
     [
      54.63633,
      55.67443
     ],
     [
      54.62402,
      55.67988
     ],
     [
      54.61475,
      55.67775
     ],
     [
      54.60439,
      55.67394
     ],
     [
      54.58862,
      55.67443
     ],
     [
      54.57812,
      55.6789
     ],
     [
      54.56162,
      55.69128
     ],
     [
      54.55396,
      55.69489
     ],
     [
      54.54111,
      55.69562
     ],
     [
      54.53604,
      55.69172
     ],
     [
      54.53135,
      55.68622
     ],
     [
      54.51963,
      55.6819
     ],
     [
      54.4957,
      55.68605
     ],
     [
      54.48086,
      55.70246
     ],
     [
      54.46836,
      55.72219
     ],
     [
      54.45142,
      55.73652
     ],
     [
      54.42734,
      55.73579
     ],
     [
      54.37744,
      55.71479
     ],
     [
      54.35928,
      55.71911
     ],
     [
      54.33799,
      55.73073
     ],
     [
      54.32266,
      55.7218
     ],
     [
      54.31006,
      55.70983
     ],
     [
      54.29746,
      55.71198
     ],
     [
      54.28979,
      55.72065
     ],
     [
      54.28687,
      55.72614
     ],
     [
      54.28701,
      55.74616
     ],
     [
      54.28125,
      55.75654
     ],
     [
      54.26807,
      55.76086
     ],
     [
      54.25332,
      55.76306
     ],
     [
      54.21914,
      55.77795
     ],
     [
      54.1876,
      55.78254
     ],
     [
      54.13271,
      55.78303
     ],
     [
      54.10586,
      55.77712
     ],
     [
      54.0769,
      55.76564
     ],
     [
      54.04922,
      55.75812
     ],
     [
      54.02627,
      55.76386
     ],
     [
      54.04297,
      55.77741
     ],
     [
      54.04756,
      55.79157
     ],
     [
      54.03994,
      55.80212
     ],
     [
      54.02002,
      55.80475
     ],
     [
      53.9833,
      55.78547
     ],
     [
      53.96558,
      55.78242
     ],
     [
      53.95801,
      55.80104
     ],
     [
      53.94053,
      55.82172
     ],
     [
      53.90488,
      55.83156
     ],
     [
      53.87705,
      55.84589
     ],
     [
      53.88232,
      55.8799
     ],
     [
      53.86865,
      55.88674
     ],
     [
      53.84692,
      55.87946
     ],
     [
      53.82422,
      55.88185
     ],
     [
      53.80151,
      55.88674
     ],
     [
      53.78052,
      55.88674
     ],
     [
      53.77285,
      55.88239
     ],
     [
      53.76699,
      55.87568
     ],
     [
      53.7627,
      55.8694
     ],
     [
      53.75938,
      55.86628
     ],
     [
      53.69507,
      55.88415
     ],
     [
      53.65186,
      55.90295
     ],
     [
      53.62939,
      55.90717
     ],
     [
      53.5334,
      55.90717
     ],
     [
      53.53564,
      55.91076
     ],
     [
      53.53857,
      55.91425
     ],
     [
      53.53857,
      55.93972
     ],
     [
      53.54346,
      55.95869
     ],
     [
      53.56494,
      55.96955
     ],
     [
      53.64331,
      55.98229
     ],
     [
      53.66348,
      55.99262
     ],
     [
      53.70986,
      56.02404
     ],
     [
      53.73936,
      56.03356
     ],
     [
      53.76294,
      56.04699
     ],
     [
      53.77368,
      56.05121
     ],
     [
      53.78828,
      56.05268
     ],
     [
      53.83447,
      56.05121
     ],
     [
      53.88794,
      56.03181
     ],
     [
      53.94883,
      56.02228
     ],
     [
      54.00586,
      56.02892
     ],
     [
      54.04678,
      56.05805
     ],
     [
      54.08291,
      56.12311
     ],
     [
      54.09863,
      56.14367
     ],
     [
      54.11719,
      56.15827
     ],
     [
      54.18457,
      56.18835
     ],
     [
      54.17798,
      56.21706
     ],
     [
      54.15664,
      56.24011
     ],
     [
      54.10205,
      56.27778
     ],
     [
      54.03457,
      56.34309
     ],
     [
      54.00952,
      56.35285
     ],
     [
      53.97451,
      56.3603
     ],
     [
      53.8999,
      56.39318
     ],
     [
      53.86582,
      56.40065
     ],
     [
      53.85752,
      56.4062
     ],
     [
      53.85352,
      56.41938
     ],
     [
      53.84814,
      56.44843
     ],
     [
      53.8418,
      56.45808
     ],
     [
      53.81396,
      56.49006
     ],
     [
      53.805,
      56.47
     ],
     [
      53.81396,
      56.49006
     ],
     [
      53.8418,
      56.45808
     ],
     [
      53.84814,
      56.44843
     ],
     [
      53.85352,
      56.41938
     ],
     [
      53.85752,
      56.4062
     ],
     [
      53.86582,
      56.40065
     ],
     [
      53.8999,
      56.39318
     ],
     [
      53.97451,
      56.3603
     ],
     [
      54.00952,
      56.35285
     ],
     [
      54.03457,
      56.34309
     ],
     [
      54.10205,
      56.27778
     ],
     [
      54.15664,
      56.24011
     ],
     [
      54.17798,
      56.21706
     ],
     [
      54.18457,
      56.18835
     ],
     [
      54.11719,
      56.15827
     ],
     [
      54.09863,
      56.14367
     ],
     [
      54.08291,
      56.12311
     ],
     [
      54.04678,
      56.05805
     ],
     [
      54.00586,
      56.02892
     ],
     [
      53.94883,
      56.02228
     ],
     [
      53.88794,
      56.03181
     ],
     [
      53.83447,
      56.05121
     ],
     [
      53.78828,
      56.05268
     ],
     [
      53.77368,
      56.05121
     ],
     [
      53.76294,
      56.04699
     ],
     [
      53.73936,
      56.03356
     ],
     [
      53.70986,
      56.02404
     ],
     [
      53.66348,
      55.99262
     ],
     [
      53.64331,
      55.98229
     ],
     [
      53.56494,
      55.96955
     ],
     [
      53.54346,
      55.95869
     ],
     [
      53.53857,
      55.93972
     ],
     [
      53.53857,
      55.91425
     ],
     [
      53.53564,
      55.91076
     ],
     [
      53.52578,
      55.90407
     ],
     [
      53.49927,
      55.89289
     ],
     [
      53.28574,
      55.852
     ],
     [
      53.09414,
      55.86359
     ],
     [
      53.06348,
      55.86982
     ],
     [
      53.02197,
      55.88454
     ],
     [
      52.99219,
      55.90034
     ],
     [
      52.95044,
      55.91254
     ],
     [
      52.94033,
      55.91774
     ],
     [
      52.9166,
      55.92585
     ],
     [
      52.8418,
      55.92988
     ],
     [
      52.81348,
      55.93452
     ],
     [
      52.76025,
      55.95417
     ],
     [
      52.7085,
      55.96516
     ],
     [
      52.65781,
      55.9593
     ],
     [
      52.60864,
      55.92829
     ],
     [
      52.52954,
      55.86281
     ],
     [
      52.50293,
      55.85126
     ],
     [
      52.46826,
      55.85236
     ],
     [
      52.37671,
      55.86982
     ],
     [
      52.34512,
      55.87062
     ],
     [
      52.31787,
      55.8631
     ],
     [
      52.3064,
      55.84199
     ],
     [
      52.30898,
      55.82209
     ],
     [
      52.31582,
      55.80324
     ],
     [
      52.34692,
      55.74763
     ],
     [
      52.35176,
      55.72932
     ],
     [
      52.34448,
      55.71418
     ],
     [
      52.27656,
      55.69575
     ],
     [
      52.12148,
      55.68976
     ],
     [
      52.09414,
      55.69489
     ],
     [
      52.02319,
      55.72211
     ],
     [
      51.99795,
      55.72285
     ],
     [
      51.9252,
      55.69355
     ],
     [
      51.88062,
      55.67438
     ],
     [
      51.85361,
      55.67849
     ],
     [
      51.82031,
      55.69746
     ],
     [
      51.79072,
      55.70607
     ],
     [
      51.75684,
      55.70368
     ],
     [
      51.72939,
      55.69099
     ],
     [
      51.70947,
      55.66857
     ],
     [
      51.69541,
      55.63959
     ],
     [
      51.69043,
      55.61682
     ],
     [
      51.66284,
      55.60817
     ],
     [
      51.62036,
      55.6048
     ],
     [
      51.57871,
      55.59943
     ],
     [
      51.53955,
      55.59223
     ],
     [
      51.51343,
      55.58312
     ],
     [
      51.50122,
      55.57058
     ],
     [
      51.50596,
      55.55048
     ],
     [
      51.50854,
      55.52949
     ],
     [
      51.49976,
      55.51411
     ],
     [
      51.48584,
      55.49641
     ],
     [
      51.47217,
      55.48146
     ],
     [
      51.44458,
      55.47053
     ],
     [
      51.40674,
      55.46516
     ],
     [
      51.36914,
      55.46796
     ],
     [
      51.3125,
      55.47724
     ],
     [
      51.28379,
      55.48652
     ],
     [
      51.26416,
      55.50361
     ],
     [
      51.24243,
      55.51411
     ],
     [
      51.20664,
      55.51508
     ],
     [
      51.17471,
      55.50661
     ],
     [
      51.15698,
      55.4923
     ],
     [
      51.13452,
      55.48273
     ],
     [
      51.10693,
      55.47424
     ],
     [
      51.07935,
      55.4676
     ],
     [
      51.03296,
      55.46186
     ],
     [
      50.98022,
      55.46638
     ],
     [
      50.92539,
      55.48366
     ],
     [
      50.87354,
      55.49531
     ],
     [
      50.82832,
      55.49421
     ],
     [
      50.79072,
      55.48652
     ],
     [
      50.7522,
      55.46625
     ],
     [
      50.71167,
      55.44123
     ],
     [
      50.68838,
      55.42011
     ],
     [
      50.65649,
      55.40368
     ],
     [
      50.60986,
      55.4051
     ],
     [
      50.54736,
      55.4112
     ],
     [
      50.47339,
      55.41091
     ],
     [
      50.41187,
      55.40119
     ],
     [
      50.37002,
      55.37824
     ],
     [
      50.31396,
      55.38356
     ],
     [
      50.24463,
      55.40583
     ],
     [
      50.18091,
      55.40368
     ],
     [
      50.13696,
      55.3985
     ],
     [
      50.07803,
      55.38112
     ],
     [
      50.01904,
      55.35554
     ],
     [
      49.96387,
      55.34597
     ],
     [
      49.8877,
      55.34736
     ],
     [
      49.82217,
      55.33466
     ],
     [
      49.77612,
      55.31262
     ],
     [
      49.69541,
      55.29445
     ],
     [
      49.59873,
      55.28413
     ],
     [
      49.53223,
      55.26061
     ],
     [
      49.41563,
      55.1966
     ],
     [
      49.38232,
      55.17182
     ],
     [
      49.36035,
      55.15168
     ],
     [
      49.29517,
      55.11884
     ],
     [
      49.20254,
      55.08466
     ],
     [
      49.10034,
      55.0548
     ],
     [
      49.05674,
      55.04601
     ],
     [
      48.97168,
      55.02485
     ],
     [
      48.91113,
      54.99714
     ],
     [
      48.89102,
      54.97028
     ],
     [
      48.89233,
      54.94062
     ],
     [
      48.83,
      54.94
     ],
     [
      48.89233,
      54.94062
     ],
     [
      48.90811,
      54.90412
     ],
     [
      48.9125,
      54.86657
     ],
     [
      48.90625,
      54.84089
     ],
     [
      48.90112,
      54.80383
     ],
     [
      48.9,
      54.77497
     ],
     [
      48.87378,
      54.7279
     ],
     [
      48.87231,
      54.69843
     ],
     [
      48.86729,
      54.64838
     ],
     [
      48.80957,
      54.59174
     ],
     [
      48.75049,
      54.56994
     ],
     [
      48.69043,
      54.56415
     ],
     [
      48.59316,
      54.54865
     ],
     [
      48.52598,
      54.52277
     ],
     [
      48.4895,
      54.48244
     ],
     [
      48.46826,
      54.44111
     ],
     [
      48.45068,
      54.38813
     ],
     [
      48.44434,
      54.34455
     ],
     [
      48.44688,
      54.29621
     ],
     [
      48.45312,
      54.24416
     ],
     [
      48.46094,
      54.21325
     ],
     [
      48.49976,
      54.18891
     ],
     [
      48.60376,
      54.12995
     ],
     [
      48.6543,
      54.11315
     ],
     [
      48.69922,
      54.09357
     ],
     [
      48.75195,
      54.06013
     ],
     [
      48.79834,
      54.03332
     ],
     [
      48.85264,
      53.99807
     ],
     [
      48.91367,
      53.94299
     ],
     [
      48.95752,
      53.89992
     ],
     [
      48.98901,
      53.85768
     ],
     [
      48.99536,
      53.81911
     ],
     [
      48.99512,
      53.75978
     ],
     [
      48.98506,
      53.67116
     ],
     [
      48.98525,
      53.60798
     ],
     [
      49.0249,
      53.54523
     ],
     [
      49.06934,
      53.49377
     ],
     [
      49.09629,
      53.484
     ],
     [
      49.1583,
      53.47248
     ],
     [
      49.26196,
      53.46296
     ],
     [
      49.53101,
      53.47114
     ],
     [
      49.77686,
      53.46027
     ],
     [
      49.83096,
      53.45983
     ],
     [
      49.90479,
      53.45673
     ],
     [
      49.98828,
      53.47065
     ],
     [
      50.0,
      53.42
     ],
     [
      49.98828,
      53.47065
     ],
     [
      50.01636,
      53.4737
     ],
     [
      50.04688,
      53.47126
     ],
     [
      50.0624,
      53.46796
     ],
     [
      50.07627,
      53.46271
     ],
     [
      50.08789,
      53.45397
     ],
     [
      50.09561,
      53.4433
     ],
     [
      50.10898,
      53.41938
     ],
     [
      50.13174,
      53.39709
     ],
     [
      50.14912,
      53.37397
     ],
     [
      50.15273,
      53.36584
     ],
     [
      50.1542,
      53.3548
     ],
     [
      50.15381,
      53.33254
     ],
     [
      50.15649,
      53.32165
     ],
     [
      50.16123,
      53.31379
     ],
     [
      50.17236,
      53.30036
     ],
     [
      50.17568,
      53.29133
     ],
     [
      50.17529,
      53.27321
     ],
     [
      50.1687,
      53.25695
     ],
     [
      50.15684,
      53.24392
     ],
     [
      50.14136,
      53.23517
     ],
     [
      50.08911,
      53.22224
     ],
     [
      50.06309,
      53.20998
     ],
     [
      50.052,
      53.19013
     ],
     [
      50.0834,
      53.1868
     ]
    ]
   }
  },
  {
   "type": "Feature",
   "properties": {
    "тип": "плечо",
    "от": "Самара",
    "до": "Тольятти",
    "км": 83
   },
   "geometry": {
    "type": "LineString",
    "coordinates": [
     [
      50.0834,
      53.1868
     ],
     [
      50.052,
      53.19013
     ],
     [
      50.06309,
      53.20998
     ],
     [
      50.08911,
      53.22224
     ],
     [
      50.14136,
      53.23517
     ],
     [
      50.15684,
      53.24392
     ],
     [
      50.1687,
      53.25695
     ],
     [
      50.17529,
      53.27321
     ],
     [
      50.17568,
      53.29133
     ],
     [
      50.17236,
      53.30036
     ],
     [
      50.16123,
      53.31379
     ],
     [
      50.15649,
      53.32165
     ],
     [
      50.15381,
      53.33254
     ],
     [
      50.1542,
      53.3548
     ],
     [
      50.15273,
      53.36584
     ],
     [
      50.14912,
      53.37397
     ],
     [
      50.13174,
      53.39709
     ],
     [
      50.10898,
      53.41938
     ],
     [
      50.09561,
      53.4433
     ],
     [
      50.08789,
      53.45397
     ],
     [
      50.07627,
      53.46271
     ],
     [
      50.0624,
      53.46796
     ],
     [
      50.04688,
      53.47126
     ],
     [
      50.01636,
      53.4737
     ],
     [
      49.98828,
      53.47065
     ],
     [
      49.90479,
      53.45673
     ],
     [
      49.83096,
      53.45983
     ],
     [
      49.77686,
      53.46027
     ],
     [
      49.53101,
      53.47114
     ],
     [
      49.405,
      53.49
     ]
    ]
   }
  },
  {
   "type": "Feature",
   "properties": {
    "тип": "плечо",
    "от": "Тольятти",
    "до": "Ульяновск",
    "км": 146
   },
   "geometry": {
    "type": "LineString",
    "coordinates": [
     [
      49.405,
      53.49
     ],
     [
      49.53101,
      53.47114
     ],
     [
      49.26196,
      53.46296
     ],
     [
      49.1583,
      53.47248
     ],
     [
      49.09629,
      53.484
     ],
     [
      49.06934,
      53.49377
     ],
     [
      49.0249,
      53.54523
     ],
     [
      48.98525,
      53.60798
     ],
     [
      48.98506,
      53.67116
     ],
     [
      48.99512,
      53.75978
     ],
     [
      48.99536,
      53.81911
     ],
     [
      48.98901,
      53.85768
     ],
     [
      48.95752,
      53.89992
     ],
     [
      48.91367,
      53.94299
     ],
     [
      48.85264,
      53.99807
     ],
     [
      48.79834,
      54.03332
     ],
     [
      48.75195,
      54.06013
     ],
     [
      48.69922,
      54.09357
     ],
     [
      48.6543,
      54.11315
     ],
     [
      48.60376,
      54.12995
     ],
     [
      48.49976,
      54.18891
     ],
     [
      48.46094,
      54.21325
     ],
     [
      48.45312,
      54.24416
     ],
     [
      48.44688,
      54.29621
     ],
     [
      48.423,
      54.313
     ]
    ]
   }
  },
  {
   "type": "Feature",
   "properties": {
    "тип": "плечо",
    "от": "Ульяновск",
    "до": "Казань",
    "км": 208
   },
   "geometry": {
    "type": "LineString",
    "coordinates": [
     [
      48.423,
      54.313
     ],
     [
      48.44688,
      54.29621
     ],
     [
      48.44434,
      54.34455
     ],
     [
      48.45068,
      54.38813
     ],
     [
      48.46826,
      54.44111
     ],
     [
      48.4895,
      54.48244
     ],
     [
      48.52598,
      54.52277
     ],
     [
      48.59316,
      54.54865
     ],
     [
      48.69043,
      54.56415
     ],
     [
      48.75049,
      54.56994
     ],
     [
      48.80957,
      54.59174
     ],
     [
      48.86729,
      54.64838
     ],
     [
      48.87231,
      54.69843
     ],
     [
      48.87378,
      54.7279
     ],
     [
      48.9,
      54.77497
     ],
     [
      48.90112,
      54.80383
     ],
     [
      48.90625,
      54.84089
     ],
     [
      48.9125,
      54.86657
     ],
     [
      48.90811,
      54.90412
     ],
     [
      48.89233,
      54.94062
     ],
     [
      48.89102,
      54.97028
     ],
     [
      48.91113,
      54.99714
     ],
     [
      48.97168,
      55.02485
     ],
     [
      49.05674,
      55.04601
     ],
     [
      49.10034,
      55.0548
     ],
     [
      49.20254,
      55.08466
     ],
     [
      49.29517,
      55.11884
     ],
     [
      49.36035,
      55.15168
     ],
     [
      49.3502,
      55.18659
     ],
     [
      49.32471,
      55.21081
     ],
     [
      49.28247,
      55.2362
     ],
     [
      49.24551,
      55.26435
     ],
     [
      49.12451,
      55.40212
     ],
     [
      49.05898,
      55.48268
     ],
     [
      49.02612,
      55.54072
     ],
     [
      49.00693,
      55.59865
     ],
     [
      49.00366,
      55.62592
     ],
     [
      49.01538,
      55.70661
     ],
     [
      49.00938,
      55.74396
     ],
     [
      49.115,
      55.776
     ]
    ]
   }
  },
  {
   "type": "Feature",
   "properties": {
    "тип": "плечо",
    "от": "Казань",
    "до": "Чистополь",
    "км": 177
   },
   "geometry": {
    "type": "LineString",
    "coordinates": [
     [
      49.115,
      55.776
     ],
     [
      49.00938,
      55.74396
     ],
     [
      49.01538,
      55.70661
     ],
     [
      49.00366,
      55.62592
     ],
     [
      49.00693,
      55.59865
     ],
     [
      49.02612,
      55.54072
     ],
     [
      49.05898,
      55.48268
     ],
     [
      49.12451,
      55.40212
     ],
     [
      49.24551,
      55.26435
     ],
     [
      49.28247,
      55.2362
     ],
     [
      49.32471,
      55.21081
     ],
     [
      49.3502,
      55.18659
     ],
     [
      49.36035,
      55.15168
     ],
     [
      49.38232,
      55.17182
     ],
     [
      49.41563,
      55.1966
     ],
     [
      49.53223,
      55.26061
     ],
     [
      49.59873,
      55.28413
     ],
     [
      49.69541,
      55.29445
     ],
     [
      49.77612,
      55.31262
     ],
     [
      49.82217,
      55.33466
     ],
     [
      49.8877,
      55.34736
     ],
     [
      49.96387,
      55.34597
     ],
     [
      50.01904,
      55.35554
     ],
     [
      50.07803,
      55.38112
     ],
     [
      50.13696,
      55.3985
     ],
     [
      50.18091,
      55.40368
     ],
     [
      50.24463,
      55.40583
     ],
     [
      50.31396,
      55.38356
     ],
     [
      50.37002,
      55.37824
     ],
     [
      50.41187,
      55.40119
     ],
     [
      50.47339,
      55.41091
     ],
     [
      50.54736,
      55.4112
     ],
     [
      50.60986,
      55.4051
     ],
     [
      50.65649,
      55.40368
     ],
     [
      50.635,
      55.366
     ]
    ]
   }
  },
  {
   "type": "Feature",
   "properties": {
    "тип": "плечо",
    "от": "Чистополь",
    "до": "Набережные Челны",
    "км": 143
   },
   "geometry": {
    "type": "LineString",
    "coordinates": [
     [
      50.635,
      55.366
     ],
     [
      50.65649,
      55.40368
     ],
     [
      50.68838,
      55.42011
     ],
     [
      50.71167,
      55.44123
     ],
     [
      50.7522,
      55.46625
     ],
     [
      50.79072,
      55.48652
     ],
     [
      50.82832,
      55.49421
     ],
     [
      50.87354,
      55.49531
     ],
     [
      50.92539,
      55.48366
     ],
     [
      50.98022,
      55.46638
     ],
     [
      51.03296,
      55.46186
     ],
     [
      51.07935,
      55.4676
     ],
     [
      51.10693,
      55.47424
     ],
     [
      51.13452,
      55.48273
     ],
     [
      51.15698,
      55.4923
     ],
     [
      51.17471,
      55.50661
     ],
     [
      51.20664,
      55.51508
     ],
     [
      51.24243,
      55.51411
     ],
     [
      51.26416,
      55.50361
     ],
     [
      51.28379,
      55.48652
     ],
     [
      51.3125,
      55.47724
     ],
     [
      51.36914,
      55.46796
     ],
     [
      51.40674,
      55.46516
     ],
     [
      51.44458,
      55.47053
     ],
     [
      51.47217,
      55.48146
     ],
     [
      51.48584,
      55.49641
     ],
     [
      51.49976,
      55.51411
     ],
     [
      51.50854,
      55.52949
     ],
     [
      51.50596,
      55.55048
     ],
     [
      51.50122,
      55.57058
     ],
     [
      51.51343,
      55.58312
     ],
     [
      51.53955,
      55.59223
     ],
     [
      51.57871,
      55.59943
     ],
     [
      51.62036,
      55.6048
     ],
     [
      51.66284,
      55.60817
     ],
     [
      51.69043,
      55.61682
     ],
     [
      51.69541,
      55.63959
     ],
     [
      51.70947,
      55.66857
     ],
     [
      51.72939,
      55.69099
     ],
     [
      51.75684,
      55.70368
     ],
     [
      51.79072,
      55.70607
     ],
     [
      51.82031,
      55.69746
     ],
     [
      51.85361,
      55.67849
     ],
     [
      51.88062,
      55.67438
     ],
     [
      51.9252,
      55.69355
     ],
     [
      51.99795,
      55.72285
     ],
     [
      52.02319,
      55.72211
     ],
     [
      52.09414,
      55.69489
     ],
     [
      52.12148,
      55.68976
     ],
     [
      52.27656,
      55.69575
     ],
     [
      52.34448,
      55.71418
     ],
     [
      52.375,
      55.71
     ]
    ]
   }
  },
  {
   "type": "Feature",
   "properties": {
    "тип": "плечо",
    "от": "Набережные Челны",
    "до": "Белая, ходовой день",
    "км": 248
   },
   "geometry": {
    "type": "LineString",
    "coordinates": [
     [
      52.375,
      55.71
     ],
     [
      52.34448,
      55.71418
     ],
     [
      52.35176,
      55.72932
     ],
     [
      52.34692,
      55.74763
     ],
     [
      52.31582,
      55.80324
     ],
     [
      52.30898,
      55.82209
     ],
     [
      52.3064,
      55.84199
     ],
     [
      52.31787,
      55.8631
     ],
     [
      52.34512,
      55.87062
     ],
     [
      52.37671,
      55.86982
     ],
     [
      52.46826,
      55.85236
     ],
     [
      52.50293,
      55.85126
     ],
     [
      52.52954,
      55.86281
     ],
     [
      52.60864,
      55.92829
     ],
     [
      52.65781,
      55.9593
     ],
     [
      52.7085,
      55.96516
     ],
     [
      52.76025,
      55.95417
     ],
     [
      52.81348,
      55.93452
     ],
     [
      52.8418,
      55.92988
     ],
     [
      52.9166,
      55.92585
     ],
     [
      52.94033,
      55.91774
     ],
     [
      52.95044,
      55.91254
     ],
     [
      52.99219,
      55.90034
     ],
     [
      53.02197,
      55.88454
     ],
     [
      53.06348,
      55.86982
     ],
     [
      53.09414,
      55.86359
     ],
     [
      53.28574,
      55.852
     ],
     [
      53.49927,
      55.89289
     ],
     [
      53.52578,
      55.90407
     ],
     [
      53.53564,
      55.91076
     ],
     [
      53.5334,
      55.90717
     ],
     [
      53.62939,
      55.90717
     ],
     [
      53.65186,
      55.90295
     ],
     [
      53.69507,
      55.88415
     ],
     [
      53.75938,
      55.86628
     ],
     [
      53.7627,
      55.8694
     ],
     [
      53.76699,
      55.87568
     ],
     [
      53.77285,
      55.88239
     ],
     [
      53.78052,
      55.88674
     ],
     [
      53.80151,
      55.88674
     ],
     [
      53.82422,
      55.88185
     ],
     [
      53.84692,
      55.87946
     ],
     [
      53.86865,
      55.88674
     ],
     [
      53.88232,
      55.8799
     ],
     [
      53.87705,
      55.84589
     ],
     [
      53.90488,
      55.83156
     ],
     [
      53.94053,
      55.82172
     ],
     [
      53.95801,
      55.80104
     ],
     [
      53.96558,
      55.78242
     ],
     [
      53.9833,
      55.78547
     ],
     [
      54.02002,
      55.80475
     ],
     [
      54.03994,
      55.80212
     ],
     [
      54.04756,
      55.79157
     ],
     [
      54.04297,
      55.77741
     ],
     [
      54.02627,
      55.76386
     ],
     [
      54.04922,
      55.75812
     ],
     [
      54.0769,
      55.76564
     ],
     [
      54.10586,
      55.77712
     ],
     [
      54.13271,
      55.78303
     ],
     [
      54.1876,
      55.78254
     ],
     [
      54.21914,
      55.77795
     ],
     [
      54.25332,
      55.76306
     ],
     [
      54.26807,
      55.76086
     ],
     [
      54.28125,
      55.75654
     ],
     [
      54.28701,
      55.74616
     ],
     [
      54.28687,
      55.72614
     ],
     [
      54.28979,
      55.72065
     ],
     [
      54.29746,
      55.71198
     ],
     [
      54.31006,
      55.70983
     ],
     [
      54.32266,
      55.7218
     ],
     [
      54.33799,
      55.73073
     ],
     [
      54.35928,
      55.71911
     ],
     [
      54.37744,
      55.71479
     ],
     [
      54.42734,
      55.73579
     ],
     [
      54.45142,
      55.73652
     ],
     [
      54.46836,
      55.72219
     ],
     [
      54.48086,
      55.70246
     ],
     [
      54.4957,
      55.68605
     ],
     [
      54.51963,
      55.6819
     ],
     [
      54.53135,
      55.68622
     ],
     [
      54.53604,
      55.69172
     ],
     [
      54.54111,
      55.69562
     ],
     [
      54.55396,
      55.69489
     ],
     [
      54.56162,
      55.69128
     ],
     [
      54.57812,
      55.6789
     ],
     [
      54.58862,
      55.67443
     ],
     [
      54.60439,
      55.67394
     ],
     [
      54.61475,
      55.67775
     ],
     [
      54.62402,
      55.67988
     ],
     [
      54.63633,
      55.67443
     ],
     [
      54.64102,
      55.6673
     ],
     [
      54.6459,
      55.64704
     ],
     [
      54.6501,
      55.63972
     ],
     [
      54.66348,
      55.63464
     ],
     [
      54.69238,
      55.63178
     ],
     [
      54.69785,
      55.62292
     ],
     [
      54.69619,
      55.60944
     ],
     [
      54.69141,
      55.60175
     ],
     [
      54.67432,
      55.5885
     ],
     [
      54.66758,
      55.57795
     ],
     [
      54.66787,
      55.56672
     ],
     [
      54.67373,
      55.55676
     ],
     [
      54.68418,
      55.55031
     ],
     [
      54.70078,
      55.54792
     ],
     [
      54.70825,
      55.5528
     ],
     [
      54.7123,
      55.56196
     ],
     [
      54.72607,
      55.58295
     ],
     [
      54.73047,
      55.59133
     ],
     [
      54.7374,
      55.59675
     ],
     [
      54.75317,
      55.5987
     ],
     [
      54.76489,
      55.5965
     ],
     [
      54.77354,
      55.59028
     ],
     [
      54.77871,
      55.58063
     ],
     [
      54.78052,
      55.5683
     ],
     [
      54.78979,
      55.55495
     ],
     [
      54.84922,
      55.50934
     ],
     [
      54.86694,
      55.48854
     ],
     [
      54.862,
      55.483
     ]
    ]
   }
  },
  {
   "type": "Feature",
   "properties": {
    "тип": "плечо",
    "от": "Белая, ходовой день",
    "до": "Уфа",
    "км": 277
   },
   "geometry": {
    "type": "LineString",
    "coordinates": [
     [
      54.862,
      55.483
     ],
     [
      54.86694,
      55.48854
     ],
     [
      54.88428,
      55.47609
     ],
     [
      54.90649,
      55.46999
     ],
     [
      54.93809,
      55.46838
     ],
     [
      54.96377,
      55.47504
     ],
     [
      54.96006,
      55.49067
     ],
     [
      54.93125,
      55.52363
     ],
     [
      54.92988,
      55.57319
     ],
     [
      54.97422,
      55.586
     ],
     [
      55.03125,
      55.58808
     ],
     [
      55.06777,
      55.60554
     ],
     [
      55.05674,
      55.62429
     ],
     [
      55.06812,
      55.6424
     ],
     [
      55.09043,
      55.65148
     ],
     [
      55.1126,
      55.64313
     ],
     [
      55.18457,
      55.58288
     ],
     [
      55.19897,
      55.57722
     ],
     [
      55.20908,
      55.56862
     ],
     [
      55.21313,
      55.54719
     ],
     [
      55.21133,
      55.52834
     ],
     [
      55.20508,
      55.50959
     ],
     [
      55.19326,
      55.49518
     ],
     [
      55.17422,
      55.48945
     ],
     [
      55.16367,
      55.48481
     ],
     [
      55.16064,
      55.47394
     ],
     [
      55.1627,
      55.4613
     ],
     [
      55.16772,
      55.45161
     ],
     [
      55.17822,
      55.44672
     ],
     [
      55.20693,
      55.44934
     ],
     [
      55.21924,
      55.44787
     ],
     [
      55.24316,
      55.4175
     ],
     [
      55.25391,
      55.41223
     ],
     [
      55.26602,
      55.41491
     ],
     [
      55.32168,
      55.4455
     ],
     [
      55.33984,
      55.45153
     ],
     [
      55.42617,
      55.46479
     ],
     [
      55.43359,
      55.47089
     ],
     [
      55.43916,
      55.47773
     ],
     [
      55.44521,
      55.48268
     ],
     [
      55.49473,
      55.48884
     ],
     [
      55.50781,
      55.46022
     ],
     [
      55.49648,
      55.41725
     ],
     [
      55.47256,
      55.38024
     ],
     [
      55.45508,
      55.36408
     ],
     [
      55.43369,
      55.35109
     ],
     [
      55.41055,
      55.34816
     ],
     [
      55.38711,
      55.36225
     ],
     [
      55.375,
      55.36706
     ],
     [
      55.36074,
      55.36306
     ],
     [
      55.34863,
      55.35436
     ],
     [
      55.34277,
      55.34548
     ],
     [
      55.34414,
      55.33625
     ],
     [
      55.34971,
      55.32863
     ],
     [
      55.38496,
      55.30056
     ],
     [
      55.40796,
      55.28762
     ],
     [
      55.43311,
      55.27949
     ],
     [
      55.49414,
      55.27082
     ],
     [
      55.50234,
      55.25891
     ],
     [
      55.48965,
      55.24885
     ],
     [
      55.45889,
      55.24865
     ],
     [
      55.40869,
      55.2569
     ],
     [
      55.38916,
      55.251
     ],
     [
      55.30703,
      55.18989
     ],
     [
      55.29551,
      55.17414
     ],
     [
      55.31372,
      55.17084
     ],
     [
      55.33252,
      55.17011
     ],
     [
      55.3479,
      55.16628
     ],
     [
      55.35645,
      55.15368
     ],
     [
      55.35474,
      55.14758
     ],
     [
      55.34512,
      55.12946
     ],
     [
      55.34277,
      55.12263
     ],
     [
      55.34692,
      55.11579
     ],
     [
      55.3562,
      55.11042
     ],
     [
      55.36646,
      55.10786
     ],
     [
      55.37314,
      55.10895
     ],
     [
      55.39771,
      55.1256
     ],
     [
      55.52773,
      55.17145
     ],
     [
      55.60083,
      55.18037
     ],
     [
      55.66416,
      55.17897
     ],
     [
      55.70889,
      55.16999
     ],
     [
      55.78652,
      55.16603
     ],
     [
      55.80215,
      55.16052
     ],
     [
      55.79072,
      55.14699
     ],
     [
      55.77236,
      55.14643
     ],
     [
      55.75122,
      55.14943
     ],
     [
      55.73252,
      55.14684
     ],
     [
      55.72207,
      55.13605
     ],
     [
      55.71104,
      55.11774
     ],
     [
      55.70225,
      55.09865
     ],
     [
      55.69844,
      55.08539
     ],
     [
      55.70068,
      55.06904
     ],
     [
      55.70957,
      55.06276
     ],
     [
      55.725,
      55.06245
     ],
     [
      55.80869,
      55.07319
     ],
     [
      55.82871,
      55.07111
     ],
     [
      55.85098,
      55.06286
     ],
     [
      55.96133,
      55.00793
     ],
     [
      55.97256,
      54.99287
     ],
     [
      55.96592,
      54.96809
     ],
     [
      55.95044,
      54.9549
     ],
     [
      55.89385,
      54.92585
     ],
     [
      55.87354,
      54.92028
     ],
     [
      55.86338,
      54.91572
     ],
     [
      55.86475,
      54.90588
     ],
     [
      55.8749,
      54.89643
     ],
     [
      55.89087,
      54.89301
     ],
     [
      55.90308,
      54.89692
     ],
     [
      55.92373,
      54.91052
     ],
     [
      55.93857,
      54.91352
     ],
     [
      55.95938,
      54.90974
     ],
     [
      55.98389,
      54.90026
     ],
     [
      56.00723,
      54.88813
     ],
     [
      56.03574,
      54.86818
     ],
     [
      56.04258,
      54.86525
     ],
     [
      56.04443,
      54.85981
     ],
     [
      56.04102,
      54.84455
     ],
     [
      56.0375,
      54.83491
     ],
     [
      56.03247,
      54.82624
     ],
     [
      56.02061,
      54.8111
     ],
     [
      55.98164,
      54.78486
     ],
     [
      55.89502,
      54.75978
     ],
     [
      55.86289,
      54.72853
     ],
     [
      55.88379,
      54.71772
     ],
     [
      55.92832,
      54.71235
     ],
     [
      55.95,
      54.72
     ]
    ]
   }
  },
  {
   "type": "Feature",
   "properties": {
    "тип": "плечо",
    "от": "Уфа",
    "до": "Бирск",
    "км": 184
   },
   "geometry": {
    "type": "LineString",
    "coordinates": [
     [
      55.95,
      54.72
     ],
     [
      55.92832,
      54.71235
     ],
     [
      55.88379,
      54.71772
     ],
     [
      55.86289,
      54.72853
     ],
     [
      55.89502,
      54.75978
     ],
     [
      55.98164,
      54.78486
     ],
     [
      56.02061,
      54.8111
     ],
     [
      56.03247,
      54.82624
     ],
     [
      56.0375,
      54.83491
     ],
     [
      56.04102,
      54.84455
     ],
     [
      56.04443,
      54.85981
     ],
     [
      56.04258,
      54.86525
     ],
     [
      56.03574,
      54.86818
     ],
     [
      56.00723,
      54.88813
     ],
     [
      55.98389,
      54.90026
     ],
     [
      55.95938,
      54.90974
     ],
     [
      55.93857,
      54.91352
     ],
     [
      55.92373,
      54.91052
     ],
     [
      55.90308,
      54.89692
     ],
     [
      55.89087,
      54.89301
     ],
     [
      55.8749,
      54.89643
     ],
     [
      55.86475,
      54.90588
     ],
     [
      55.86338,
      54.91572
     ],
     [
      55.87354,
      54.92028
     ],
     [
      55.89385,
      54.92585
     ],
     [
      55.95044,
      54.9549
     ],
     [
      55.96592,
      54.96809
     ],
     [
      55.97256,
      54.99287
     ],
     [
      55.96133,
      55.00793
     ],
     [
      55.85098,
      55.06286
     ],
     [
      55.82871,
      55.07111
     ],
     [
      55.80869,
      55.07319
     ],
     [
      55.725,
      55.06245
     ],
     [
      55.70957,
      55.06276
     ],
     [
      55.70068,
      55.06904
     ],
     [
      55.69844,
      55.08539
     ],
     [
      55.70225,
      55.09865
     ],
     [
      55.71104,
      55.11774
     ],
     [
      55.72207,
      55.13605
     ],
     [
      55.73252,
      55.14684
     ],
     [
      55.75122,
      55.14943
     ],
     [
      55.77236,
      55.14643
     ],
     [
      55.79072,
      55.14699
     ],
     [
      55.80215,
      55.16052
     ],
     [
      55.78652,
      55.16603
     ],
     [
      55.70889,
      55.16999
     ],
     [
      55.66416,
      55.17897
     ],
     [
      55.60083,
      55.18037
     ],
     [
      55.52773,
      55.17145
     ],
     [
      55.39771,
      55.1256
     ],
     [
      55.37314,
      55.10895
     ],
     [
      55.36646,
      55.10786
     ],
     [
      55.3562,
      55.11042
     ],
     [
      55.34692,
      55.11579
     ],
     [
      55.34277,
      55.12263
     ],
     [
      55.34512,
      55.12946
     ],
     [
      55.35474,
      55.14758
     ],
     [
      55.35645,
      55.15368
     ],
     [
      55.3479,
      55.16628
     ],
     [
      55.33252,
      55.17011
     ],
     [
      55.31372,
      55.17084
     ],
     [
      55.29551,
      55.17414
     ],
     [
      55.30703,
      55.18989
     ],
     [
      55.38916,
      55.251
     ],
     [
      55.40869,
      55.2569
     ],
     [
      55.45889,
      55.24865
     ],
     [
      55.48965,
      55.24885
     ],
     [
      55.50234,
      55.25891
     ],
     [
      55.49414,
      55.27082
     ],
     [
      55.43311,
      55.27949
     ],
     [
      55.40796,
      55.28762
     ],
     [
      55.38496,
      55.30056
     ],
     [
      55.34971,
      55.32863
     ],
     [
      55.34414,
      55.33625
     ],
     [
      55.34277,
      55.34548
     ],
     [
      55.34863,
      55.35436
     ],
     [
      55.36074,
      55.36306
     ],
     [
      55.375,
      55.36706
     ],
     [
      55.38711,
      55.36225
     ],
     [
      55.41055,
      55.34816
     ],
     [
      55.43369,
      55.35109
     ],
     [
      55.45508,
      55.36408
     ],
     [
      55.47256,
      55.38024
     ],
     [
      55.49648,
      55.41725
     ],
     [
      55.54,
      55.418
     ]
    ]
   }
  },
  {
   "type": "Feature",
   "properties": {
    "тип": "плечо",
    "от": "Бирск",
    "до": "Сарапул",
    "км": 344
   },
   "geometry": {
    "type": "LineString",
    "coordinates": [
     [
      55.54,
      55.418
     ],
     [
      55.49648,
      55.41725
     ],
     [
      55.50781,
      55.46022
     ],
     [
      55.49473,
      55.48884
     ],
     [
      55.44521,
      55.48268
     ],
     [
      55.43916,
      55.47773
     ],
     [
      55.43359,
      55.47089
     ],
     [
      55.42617,
      55.46479
     ],
     [
      55.33984,
      55.45153
     ],
     [
      55.32168,
      55.4455
     ],
     [
      55.26602,
      55.41491
     ],
     [
      55.25391,
      55.41223
     ],
     [
      55.24316,
      55.4175
     ],
     [
      55.21924,
      55.44787
     ],
     [
      55.20693,
      55.44934
     ],
     [
      55.17822,
      55.44672
     ],
     [
      55.16772,
      55.45161
     ],
     [
      55.1627,
      55.4613
     ],
     [
      55.16064,
      55.47394
     ],
     [
      55.16367,
      55.48481
     ],
     [
      55.17422,
      55.48945
     ],
     [
      55.19326,
      55.49518
     ],
     [
      55.20508,
      55.50959
     ],
     [
      55.21133,
      55.52834
     ],
     [
      55.21313,
      55.54719
     ],
     [
      55.20908,
      55.56862
     ],
     [
      55.19897,
      55.57722
     ],
     [
      55.18457,
      55.58288
     ],
     [
      55.1126,
      55.64313
     ],
     [
      55.09043,
      55.65148
     ],
     [
      55.06812,
      55.6424
     ],
     [
      55.05674,
      55.62429
     ],
     [
      55.06777,
      55.60554
     ],
     [
      55.03125,
      55.58808
     ],
     [
      54.97422,
      55.586
     ],
     [
      54.92988,
      55.57319
     ],
     [
      54.93125,
      55.52363
     ],
     [
      54.96006,
      55.49067
     ],
     [
      54.96377,
      55.47504
     ],
     [
      54.93809,
      55.46838
     ],
     [
      54.90649,
      55.46999
     ],
     [
      54.88428,
      55.47609
     ],
     [
      54.86694,
      55.48854
     ],
     [
      54.84922,
      55.50934
     ],
     [
      54.78979,
      55.55495
     ],
     [
      54.78052,
      55.5683
     ],
     [
      54.77871,
      55.58063
     ],
     [
      54.77354,
      55.59028
     ],
     [
      54.76489,
      55.5965
     ],
     [
      54.75317,
      55.5987
     ],
     [
      54.7374,
      55.59675
     ],
     [
      54.73047,
      55.59133
     ],
     [
      54.72607,
      55.58295
     ],
     [
      54.7123,
      55.56196
     ],
     [
      54.70825,
      55.5528
     ],
     [
      54.70078,
      55.54792
     ],
     [
      54.68418,
      55.55031
     ],
     [
      54.67373,
      55.55676
     ],
     [
      54.66787,
      55.56672
     ],
     [
      54.66758,
      55.57795
     ],
     [
      54.67432,
      55.5885
     ],
     [
      54.69141,
      55.60175
     ],
     [
      54.69619,
      55.60944
     ],
     [
      54.69785,
      55.62292
     ],
     [
      54.69238,
      55.63178
     ],
     [
      54.66348,
      55.63464
     ],
     [
      54.6501,
      55.63972
     ],
     [
      54.6459,
      55.64704
     ],
     [
      54.64102,
      55.6673
     ],
     [
      54.63633,
      55.67443
     ],
     [
      54.62402,
      55.67988
     ],
     [
      54.61475,
      55.67775
     ],
     [
      54.60439,
      55.67394
     ],
     [
      54.58862,
      55.67443
     ],
     [
      54.57812,
      55.6789
     ],
     [
      54.56162,
      55.69128
     ],
     [
      54.55396,
      55.69489
     ],
     [
      54.54111,
      55.69562
     ],
     [
      54.53604,
      55.69172
     ],
     [
      54.53135,
      55.68622
     ],
     [
      54.51963,
      55.6819
     ],
     [
      54.4957,
      55.68605
     ],
     [
      54.48086,
      55.70246
     ],
     [
      54.46836,
      55.72219
     ],
     [
      54.45142,
      55.73652
     ],
     [
      54.42734,
      55.73579
     ],
     [
      54.37744,
      55.71479
     ],
     [
      54.35928,
      55.71911
     ],
     [
      54.33799,
      55.73073
     ],
     [
      54.32266,
      55.7218
     ],
     [
      54.31006,
      55.70983
     ],
     [
      54.29746,
      55.71198
     ],
     [
      54.28979,
      55.72065
     ],
     [
      54.28687,
      55.72614
     ],
     [
      54.28701,
      55.74616
     ],
     [
      54.28125,
      55.75654
     ],
     [
      54.26807,
      55.76086
     ],
     [
      54.25332,
      55.76306
     ],
     [
      54.21914,
      55.77795
     ],
     [
      54.1876,
      55.78254
     ],
     [
      54.13271,
      55.78303
     ],
     [
      54.10586,
      55.77712
     ],
     [
      54.0769,
      55.76564
     ],
     [
      54.04922,
      55.75812
     ],
     [
      54.02627,
      55.76386
     ],
     [
      54.04297,
      55.77741
     ],
     [
      54.04756,
      55.79157
     ],
     [
      54.03994,
      55.80212
     ],
     [
      54.02002,
      55.80475
     ],
     [
      53.9833,
      55.78547
     ],
     [
      53.96558,
      55.78242
     ],
     [
      53.95801,
      55.80104
     ],
     [
      53.94053,
      55.82172
     ],
     [
      53.90488,
      55.83156
     ],
     [
      53.87705,
      55.84589
     ],
     [
      53.88232,
      55.8799
     ],
     [
      53.86865,
      55.88674
     ],
     [
      53.84692,
      55.87946
     ],
     [
      53.82422,
      55.88185
     ],
     [
      53.80151,
      55.88674
     ],
     [
      53.78052,
      55.88674
     ],
     [
      53.77285,
      55.88239
     ],
     [
      53.76699,
      55.87568
     ],
     [
      53.7627,
      55.8694
     ],
     [
      53.75938,
      55.86628
     ],
     [
      53.69507,
      55.88415
     ],
     [
      53.65186,
      55.90295
     ],
     [
      53.62939,
      55.90717
     ],
     [
      53.5334,
      55.90717
     ],
     [
      53.53564,
      55.91076
     ],
     [
      53.53857,
      55.91425
     ],
     [
      53.53857,
      55.93972
     ],
     [
      53.54346,
      55.95869
     ],
     [
      53.56494,
      55.96955
     ],
     [
      53.64331,
      55.98229
     ],
     [
      53.66348,
      55.99262
     ],
     [
      53.70986,
      56.02404
     ],
     [
      53.73936,
      56.03356
     ],
     [
      53.76294,
      56.04699
     ],
     [
      53.77368,
      56.05121
     ],
     [
      53.78828,
      56.05268
     ],
     [
      53.83447,
      56.05121
     ],
     [
      53.88794,
      56.03181
     ],
     [
      53.94883,
      56.02228
     ],
     [
      54.00586,
      56.02892
     ],
     [
      54.04678,
      56.05805
     ],
     [
      54.08291,
      56.12311
     ],
     [
      54.09863,
      56.14367
     ],
     [
      54.11719,
      56.15827
     ],
     [
      54.18457,
      56.18835
     ],
     [
      54.17798,
      56.21706
     ],
     [
      54.15664,
      56.24011
     ],
     [
      54.10205,
      56.27778
     ],
     [
      54.03457,
      56.34309
     ],
     [
      54.00952,
      56.35285
     ],
     [
      53.97451,
      56.3603
     ],
     [
      53.8999,
      56.39318
     ],
     [
      53.86582,
      56.40065
     ],
     [
      53.85752,
      56.4062
     ],
     [
      53.85352,
      56.41938
     ],
     [
      53.84814,
      56.44843
     ],
     [
      53.8418,
      56.45808
     ],
     [
      53.81396,
      56.49006
     ],
     [
      53.805,
      56.47
     ]
    ]
   }
  },
  {
   "type": "Feature",
   "properties": {
    "тип": "плечо",
    "от": "Сарапул",
    "до": "Тетюши",
    "км": 484
   },
   "geometry": {
    "type": "LineString",
    "coordinates": [
     [
      53.805,
      56.47
     ],
     [
      53.81396,
      56.49006
     ],
     [
      53.8418,
      56.45808
     ],
     [
      53.84814,
      56.44843
     ],
     [
      53.85352,
      56.41938
     ],
     [
      53.85752,
      56.4062
     ],
     [
      53.86582,
      56.40065
     ],
     [
      53.8999,
      56.39318
     ],
     [
      53.97451,
      56.3603
     ],
     [
      54.00952,
      56.35285
     ],
     [
      54.03457,
      56.34309
     ],
     [
      54.10205,
      56.27778
     ],
     [
      54.15664,
      56.24011
     ],
     [
      54.17798,
      56.21706
     ],
     [
      54.18457,
      56.18835
     ],
     [
      54.11719,
      56.15827
     ],
     [
      54.09863,
      56.14367
     ],
     [
      54.08291,
      56.12311
     ],
     [
      54.04678,
      56.05805
     ],
     [
      54.00586,
      56.02892
     ],
     [
      53.94883,
      56.02228
     ],
     [
      53.88794,
      56.03181
     ],
     [
      53.83447,
      56.05121
     ],
     [
      53.78828,
      56.05268
     ],
     [
      53.77368,
      56.05121
     ],
     [
      53.76294,
      56.04699
     ],
     [
      53.73936,
      56.03356
     ],
     [
      53.70986,
      56.02404
     ],
     [
      53.66348,
      55.99262
     ],
     [
      53.64331,
      55.98229
     ],
     [
      53.56494,
      55.96955
     ],
     [
      53.54346,
      55.95869
     ],
     [
      53.53857,
      55.93972
     ],
     [
      53.53857,
      55.91425
     ],
     [
      53.53564,
      55.91076
     ],
     [
      53.52578,
      55.90407
     ],
     [
      53.49927,
      55.89289
     ],
     [
      53.28574,
      55.852
     ],
     [
      53.09414,
      55.86359
     ],
     [
      53.06348,
      55.86982
     ],
     [
      53.02197,
      55.88454
     ],
     [
      52.99219,
      55.90034
     ],
     [
      52.95044,
      55.91254
     ],
     [
      52.94033,
      55.91774
     ],
     [
      52.9166,
      55.92585
     ],
     [
      52.8418,
      55.92988
     ],
     [
      52.81348,
      55.93452
     ],
     [
      52.76025,
      55.95417
     ],
     [
      52.7085,
      55.96516
     ],
     [
      52.65781,
      55.9593
     ],
     [
      52.60864,
      55.92829
     ],
     [
      52.52954,
      55.86281
     ],
     [
      52.50293,
      55.85126
     ],
     [
      52.46826,
      55.85236
     ],
     [
      52.37671,
      55.86982
     ],
     [
      52.34512,
      55.87062
     ],
     [
      52.31787,
      55.8631
     ],
     [
      52.3064,
      55.84199
     ],
     [
      52.30898,
      55.82209
     ],
     [
      52.31582,
      55.80324
     ],
     [
      52.34692,
      55.74763
     ],
     [
      52.35176,
      55.72932
     ],
     [
      52.34448,
      55.71418
     ],
     [
      52.27656,
      55.69575
     ],
     [
      52.12148,
      55.68976
     ],
     [
      52.09414,
      55.69489
     ],
     [
      52.02319,
      55.72211
     ],
     [
      51.99795,
      55.72285
     ],
     [
      51.9252,
      55.69355
     ],
     [
      51.88062,
      55.67438
     ],
     [
      51.85361,
      55.67849
     ],
     [
      51.82031,
      55.69746
     ],
     [
      51.79072,
      55.70607
     ],
     [
      51.75684,
      55.70368
     ],
     [
      51.72939,
      55.69099
     ],
     [
      51.70947,
      55.66857
     ],
     [
      51.69541,
      55.63959
     ],
     [
      51.69043,
      55.61682
     ],
     [
      51.66284,
      55.60817
     ],
     [
      51.62036,
      55.6048
     ],
     [
      51.57871,
      55.59943
     ],
     [
      51.53955,
      55.59223
     ],
     [
      51.51343,
      55.58312
     ],
     [
      51.50122,
      55.57058
     ],
     [
      51.50596,
      55.55048
     ],
     [
      51.50854,
      55.52949
     ],
     [
      51.49976,
      55.51411
     ],
     [
      51.48584,
      55.49641
     ],
     [
      51.47217,
      55.48146
     ],
     [
      51.44458,
      55.47053
     ],
     [
      51.40674,
      55.46516
     ],
     [
      51.36914,
      55.46796
     ],
     [
      51.3125,
      55.47724
     ],
     [
      51.28379,
      55.48652
     ],
     [
      51.26416,
      55.50361
     ],
     [
      51.24243,
      55.51411
     ],
     [
      51.20664,
      55.51508
     ],
     [
      51.17471,
      55.50661
     ],
     [
      51.15698,
      55.4923
     ],
     [
      51.13452,
      55.48273
     ],
     [
      51.10693,
      55.47424
     ],
     [
      51.07935,
      55.4676
     ],
     [
      51.03296,
      55.46186
     ],
     [
      50.98022,
      55.46638
     ],
     [
      50.92539,
      55.48366
     ],
     [
      50.87354,
      55.49531
     ],
     [
      50.82832,
      55.49421
     ],
     [
      50.79072,
      55.48652
     ],
     [
      50.7522,
      55.46625
     ],
     [
      50.71167,
      55.44123
     ],
     [
      50.68838,
      55.42011
     ],
     [
      50.65649,
      55.40368
     ],
     [
      50.60986,
      55.4051
     ],
     [
      50.54736,
      55.4112
     ],
     [
      50.47339,
      55.41091
     ],
     [
      50.41187,
      55.40119
     ],
     [
      50.37002,
      55.37824
     ],
     [
      50.31396,
      55.38356
     ],
     [
      50.24463,
      55.40583
     ],
     [
      50.18091,
      55.40368
     ],
     [
      50.13696,
      55.3985
     ],
     [
      50.07803,
      55.38112
     ],
     [
      50.01904,
      55.35554
     ],
     [
      49.96387,
      55.34597
     ],
     [
      49.8877,
      55.34736
     ],
     [
      49.82217,
      55.33466
     ],
     [
      49.77612,
      55.31262
     ],
     [
      49.69541,
      55.29445
     ],
     [
      49.59873,
      55.28413
     ],
     [
      49.53223,
      55.26061
     ],
     [
      49.41563,
      55.1966
     ],
     [
      49.38232,
      55.17182
     ],
     [
      49.36035,
      55.15168
     ],
     [
      49.29517,
      55.11884
     ],
     [
      49.20254,
      55.08466
     ],
     [
      49.10034,
      55.0548
     ],
     [
      49.05674,
      55.04601
     ],
     [
      48.97168,
      55.02485
     ],
     [
      48.91113,
      54.99714
     ],
     [
      48.89102,
      54.97028
     ],
     [
      48.89233,
      54.94062
     ],
     [
      48.83,
      54.94
     ]
    ]
   }
  },
  {
   "type": "Feature",
   "properties": {
    "тип": "плечо",
    "от": "Тетюши",
    "до": "Ширяево",
    "км": 262
   },
   "geometry": {
    "type": "LineString",
    "coordinates": [
     [
      48.83,
      54.94
     ],
     [
      48.89233,
      54.94062
     ],
     [
      48.90811,
      54.90412
     ],
     [
      48.9125,
      54.86657
     ],
     [
      48.90625,
      54.84089
     ],
     [
      48.90112,
      54.80383
     ],
     [
      48.9,
      54.77497
     ],
     [
      48.87378,
      54.7279
     ],
     [
      48.87231,
      54.69843
     ],
     [
      48.86729,
      54.64838
     ],
     [
      48.80957,
      54.59174
     ],
     [
      48.75049,
      54.56994
     ],
     [
      48.69043,
      54.56415
     ],
     [
      48.59316,
      54.54865
     ],
     [
      48.52598,
      54.52277
     ],
     [
      48.4895,
      54.48244
     ],
     [
      48.46826,
      54.44111
     ],
     [
      48.45068,
      54.38813
     ],
     [
      48.44434,
      54.34455
     ],
     [
      48.44688,
      54.29621
     ],
     [
      48.45312,
      54.24416
     ],
     [
      48.46094,
      54.21325
     ],
     [
      48.49976,
      54.18891
     ],
     [
      48.60376,
      54.12995
     ],
     [
      48.6543,
      54.11315
     ],
     [
      48.69922,
      54.09357
     ],
     [
      48.75195,
      54.06013
     ],
     [
      48.79834,
      54.03332
     ],
     [
      48.85264,
      53.99807
     ],
     [
      48.91367,
      53.94299
     ],
     [
      48.95752,
      53.89992
     ],
     [
      48.98901,
      53.85768
     ],
     [
      48.99536,
      53.81911
     ],
     [
      48.99512,
      53.75978
     ],
     [
      48.98506,
      53.67116
     ],
     [
      48.98525,
      53.60798
     ],
     [
      49.0249,
      53.54523
     ],
     [
      49.06934,
      53.49377
     ],
     [
      49.09629,
      53.484
     ],
     [
      49.1583,
      53.47248
     ],
     [
      49.26196,
      53.46296
     ],
     [
      49.53101,
      53.47114
     ],
     [
      49.77686,
      53.46027
     ],
     [
      49.83096,
      53.45983
     ],
     [
      49.90479,
      53.45673
     ],
     [
      49.98828,
      53.47065
     ],
     [
      50.0,
      53.42
     ]
    ]
   }
  },
  {
   "type": "Feature",
   "properties": {
    "тип": "плечо",
    "от": "Ширяево",
    "до": "Самара",
    "км": 50
   },
   "geometry": {
    "type": "LineString",
    "coordinates": [
     [
      50.0,
      53.42
     ],
     [
      49.98828,
      53.47065
     ],
     [
      50.01636,
      53.4737
     ],
     [
      50.04688,
      53.47126
     ],
     [
      50.0624,
      53.46796
     ],
     [
      50.07627,
      53.46271
     ],
     [
      50.08789,
      53.45397
     ],
     [
      50.09561,
      53.4433
     ],
     [
      50.10898,
      53.41938
     ],
     [
      50.13174,
      53.39709
     ],
     [
      50.14912,
      53.37397
     ],
     [
      50.15273,
      53.36584
     ],
     [
      50.1542,
      53.3548
     ],
     [
      50.15381,
      53.33254
     ],
     [
      50.15649,
      53.32165
     ],
     [
      50.16123,
      53.31379
     ],
     [
      50.17236,
      53.30036
     ],
     [
      50.17568,
      53.29133
     ],
     [
      50.17529,
      53.27321
     ],
     [
      50.1687,
      53.25695
     ],
     [
      50.15684,
      53.24392
     ],
     [
      50.14136,
      53.23517
     ],
     [
      50.08911,
      53.22224
     ],
     [
      50.06309,
      53.20998
     ],
     [
      50.052,
      53.19013
     ],
     [
      50.0834,
      53.1868
     ]
    ]
   }
  },
  {
   "type": "Feature",
   "properties": {
    "тип": "порт",
    "день": 1,
    "порт": "Самара",
    "река": "Волга",
    "стоянка": 1,
    "программа": "Посадка на Самарском речном вокзале, приветственный ужин, вечерняя программа"
   },
   "geometry": {
    "type": "Point",
    "coordinates": [
     50.0834,
     53.1868
    ]
   }
  },
  {
   "type": "Feature",
   "properties": {
    "тип": "порт",
    "день": 2,
    "порт": "Тольятти",
    "река": "Волга",
    "стоянка": 1,
    "программа": "Автобусная экскурсия к Замку Гарибальди в Хрящевке на берегу Жигулёвского моря"
   },
   "geometry": {
    "type": "Point",
    "coordinates": [
     49.405,
     53.49
    ]
   }
  },
  {
   "type": "Feature",
   "properties": {
    "тип": "порт",
    "день": 3,
    "порт": "Ульяновск",
    "река": "Волга",
    "стоянка": 1,
    "программа": "Исторический центр (Венец), музей-заповедник «Родина В. И. Ленина»"
   },
   "geometry": {
    "type": "Point",
    "coordinates": [
     48.423,
     54.313
    ]
   }
  },
  {
   "type": "Feature",
   "properties": {
    "тип": "порт",
    "день": 4,
    "порт": "Казань",
    "река": "Волга",
    "стоянка": 1,
    "программа": "Казанский Кремль, мечеть Кул-Шариф, улица Баумана"
   },
   "geometry": {
    "type": "Point",
    "coordinates": [
     49.115,
     55.776
    ]
   }
  },
  {
   "type": "Feature",
   "properties": {
    "тип": "порт",
    "день": 5,
    "порт": "Чистополь",
    "река": "Кама",
    "стоянка": 1,
    "программа": "Купеческий город: музей Бориса Пастернака, Никольский собор"
   },
   "geometry": {
    "type": "Point",
    "coordinates": [
     50.635,
     55.366
    ]
   }
  },
  {
   "type": "Feature",
   "properties": {
    "тип": "порт",
    "день": 6,
    "порт": "Набережные Челны",
    "река": "Кама",
    "стоянка": 2,
    "программа": "Ночью шлюз Нижнекамской ГЭС; автобус по плотине в Елабугу: Чёртово городище, Шишкин, Цветаева; второй день — набережная и КАМАЗ"
   },
   "geometry": {
    "type": "Point",
    "coordinates": [
     52.375,
     55.71
    ]
   }
  },
  {
   "type": "Feature",
   "properties": {
    "тип": "порт",
    "день": 8,
    "порт": "Белая, ходовой день",
    "река": "Белая",
    "стоянка": 1,
    "программа": "Извилистое русло Белой без остановок: лекции о башкирской культуре, кино, кулинарные мастер-классы"
   },
   "geometry": {
    "type": "Point",
    "coordinates": [
     54.862,
     55.483
    ]
   }
  },
  {
   "type": "Feature",
   "properties": {
    "тип": "порт",
    "день": 9,
    "порт": "Уфа",
    "река": "Белая",
    "стоянка": 2,
    "программа": "Причал у Монумента Дружбы; Салават Юлаев, Национальный музей, Арт-квадрат, башкирский ужин с кумысом"
   },
   "geometry": {
    "type": "Point",
    "coordinates": [
     55.95,
     54.72
    ]
   }
  },
  {
   "type": "Feature",
   "properties": {
    "тип": "порт",
    "день": 11,
    "порт": "Бирск",
    "река": "Белая",
    "стоянка": 1,
    "программа": "Город-крепость, интерактивная программа о купеческом быте XIX века"
   },
   "geometry": {
    "type": "Point",
    "coordinates": [
     55.54,
     55.418
    ]
   }
  },
  {
   "type": "Feature",
   "properties": {
    "тип": "порт",
    "день": 12,
    "порт": "Сарапул",
    "река": "Кама",
    "стоянка": 1,
    "программа": "Дача Башенина, дегустация сарапульских сладостей"
   },
   "geometry": {
    "type": "Point",
    "coordinates": [
     53.805,
     56.47
    ]
   }
  },
  {
   "type": "Feature",
   "properties": {
    "тип": "порт",
    "день": 13,
    "порт": "Тетюши",
    "река": "Волга",
    "стоянка": 1,
    "программа": "Театрализованная «Встреча с царь-рыбой», Музей истории рыболовства"
   },
   "geometry": {
    "type": "Point",
    "coordinates": [
     48.83,
     54.94
    ]
   }
  },
  {
   "type": "Feature",
   "properties": {
    "тип": "порт",
    "день": 14,
    "порт": "Ширяево",
    "река": "Волга",
    "стоянка": 1,
    "программа": "Попова гора, дом-музей Ильи Репина, Жигулёвские горы"
   },
   "geometry": {
    "type": "Point",
    "coordinates": [
     50.0,
     53.42
    ]
   }
  },
  {
   "type": "Feature",
   "properties": {
    "тип": "порт",
    "день": 15,
    "порт": "Самара",
    "река": "Волга",
    "стоянка": 1,
    "программа": "Прибытие в первой половине дня, окончание круиза"
   },
   "geometry": {
    "type": "Point",
    "coordinates": [
     50.0834,
     53.1868
    ]
   }
  }
 ]
}